FACSAT-2                
1 56205U 23054AD  23334.45776686  .00032093  00000+0  11578-2 0  9996
2 56205  97.3871 227.7926 0014680 135.2220 225.0207 15.28350757 35542
